start=new Date('2023-05-12T00:00:00.000Z').valueOf();
sats=[{"CLASSIFICATION_TYPE":"U","SITE":"AFETR","PERIAPSIS":"539.259","MEAN_MOTION_DDOT":"0.0000000000000","PERIOD":"95.437","LAUNCH_DATE":"2022-09-19","MEAN_ELEMENT_THEORY":"SGP4","ELEMENT_SET_NO":"999","NORAD_CAT_ID":"53833","EPOCH":"2023-05-11T14:41:14.426592","BSTAR":"0.00005137400000","MEAN_MOTION_DOT":"0.00000530","APOAPSIS":"540.224","REF_FRAME":"TEME","MEAN_MOTION":"15.08841224","TLE_LINE2":"2 53833  53.2149 261.6534 0000697  74.6195 285.4874 15.08841224 36876","GP_ID":"231637025","FILE":"3905576","DECAY_DATE":null,"MEAN_ANOMALY":"285.4874","RCS_SIZE":"LARGE","RA_OF_ASC_NODE":"261.6534","EPHEMERIS_TYPE":"0","SEMIMAJOR_AXIS":"6917.877","OBJECT_TYPE":"PAYLOAD","COUNTRY_CODE":"US","INCLINATION":"53.2149","ECCENTRICITY":"0.00006970","OBJECT_ID":"2022-114R","REV_AT_EPOCH":"3687","ARG_OF_PERICENTER":"74.6195","OBJECT_NAME":"STARLINK-4771","TLE_LINE1":"1 53833U 22114R   23131.61197253  .00000530  00000-0  51374-4 0  9998","CENTER_NAME":"EARTH","TIME_SYSTEM":"UTC"},{"OBJECT_ID":"2022-114S","ECCENTRICITY":"0.00014780","REV_AT_EPOCH":"3687","OBJECT_TYPE":"PAYLOAD","EPHEMERIS_TYPE":"0","RA_OF_ASC_NODE":"261.5459","SEMIMAJOR_AXIS":"6917.875","INCLINATION":"53.2170","COUNTRY_CODE":"US","FILE":"3905576","GP_ID":"231637274","RCS_SIZE":"LARGE","DECAY_DATE":null,"MEAN_ANOMALY":"249.8612","TIME_SYSTEM":"UTC","CENTER_NAME":"EARTH","TLE_LINE1":"1 53834U 22114S   23131.59354890  .00007477  00000-0  48736-3 0  9992","ARG_OF_PERICENTER":"110.2539","OBJECT_NAME":"STARLINK-4737","NORAD_CAT_ID":"53834","ELEMENT_SET_NO":"999","LAUNCH_DATE":"2022-09-19","PERIOD":"95.437","MEAN_ELEMENT_THEORY":"SGP4","CLASSIFICATION_TYPE":"U","MEAN_MOTION_DDOT":"0.0000000000000","SITE":"AFETR","PERIAPSIS":"538.718","TLE_LINE2":"2 53834  53.2170 261.5459 0001478 110.2539 249.8612 15.08841720 36878","MEAN_MOTION":"15.08841720","APOAPSIS":"540.763","REF_FRAME":"TEME","MEAN_MOTION_DOT":"0.00007477","BSTAR":"0.00048736000000","EPOCH":"2023-05-11T14:14:42.624960"},{"EPOCH":"2023-05-11T16:06:00.632160","MEAN_MOTION_DOT":"0.00001164","BSTAR":"0.00009120100000","APOAPSIS":"540.613","REF_FRAME":"TEME","MEAN_MOTION":"15.08846490","TLE_LINE2":"2 53835  53.2166 261.3110 0001283  85.3819 274.7320 15.08846490 36886","CLASSIFICATION_TYPE":"U","MEAN_MOTION_DDOT":"0.0000000000000","SITE":"AFETR","PERIAPSIS":"538.838","PERIOD":"95.437","LAUNCH_DATE":"2022-09-19","MEAN_ELEMENT_THEORY":"SGP4","ELEMENT_SET_NO":"999","NORAD_CAT_ID":"53835","ARG_OF_PERICENTER":"85.3819","OBJECT_NAME":"STARLINK-4783","TLE_LINE1":"1 53835U 22114T   23131.67084065  .00001164  00000-0  91201-4 0  9999","CENTER_NAME":"EARTH","TIME_SYSTEM":"UTC","FILE":"3905576","GP_ID":"231638026","RCS_SIZE":"LARGE","DECAY_DATE":null,"MEAN_ANOMALY":"274.7320","OBJECT_TYPE":"PAYLOAD","SEMIMAJOR_AXIS":"6917.861","RA_OF_ASC_NODE":"261.3110","EPHEMERIS_TYPE":"0","INCLINATION":"53.2166","COUNTRY_CODE":"US","ECCENTRICITY":"0.00012830","OBJECT_ID":"2022-114T","REV_AT_EPOCH":"3688"},{"TLE_LINE1":"1 53836U 22114U   23131.64236913  .00000498  00000-0  49371-4 0  9998","OBJECT_NAME":"STARLINK-4778","ARG_OF_PERICENTER":"110.0962","TIME_SYSTEM":"UTC","CENTER_NAME":"EARTH","COUNTRY_CODE":"US","INCLINATION":"53.2160","RA_OF_ASC_NODE":"251.8557","SEMIMAJOR_AXIS":"6917.866","EPHEMERIS_TYPE":"0","OBJECT_TYPE":"PAYLOAD","DECAY_DATE":null,"MEAN_ANOMALY":"250.0144","RCS_SIZE":"LARGE","GP_ID":"231638776","FILE":"3905576","REV_AT_EPOCH":"3701","ECCENTRICITY":"0.00010580","OBJECT_ID":"2022-114U","BSTAR":"0.00004937100000","MEAN_MOTION_DOT":"0.00000498","EPOCH":"2023-05-11T15:25:00.692832","MEAN_MOTION":"15.08844717","TLE_LINE2":"2 53836  53.2160 251.8557 0001058 110.0962 250.0144 15.08844717 37012","REF_FRAME":"TEME","APOAPSIS":"540.463","MEAN_ELEMENT_THEORY":"SGP4","LAUNCH_DATE":"2022-09-19","PERIOD":"95.437","PERIAPSIS":"538.999","SITE":"AFETR","MEAN_MOTION_DDOT":"0.0000000000000","CLASSIFICATION_TYPE":"U","NORAD_CAT_ID":"53836","ELEMENT_SET_NO":"999"},{"NORAD_CAT_ID":"53837","ELEMENT_SET_NO":"999","MEAN_ELEMENT_THEORY":"SGP4","LAUNCH_DATE":"2022-09-19","PERIOD":"95.438","MEAN_MOTION_DDOT":"0.0000000000000","PERIAPSIS":"539.022","SITE":"AFETR","CLASSIFICATION_TYPE":"U","TLE_LINE2":"2 53837  53.2154 261.5617 0001045  92.8194 267.2918 15.08840074 36875","MEAN_MOTION":"15.08840074","APOAPSIS":"540.468","REF_FRAME":"TEME","MEAN_MOTION_DOT":"0.00002088","BSTAR":"0.00014921000000","EPOCH":"2023-05-11T14:20:00.929472","REV_AT_EPOCH":"3687","OBJECT_ID":"2022-114V","ECCENTRICITY":"0.00010450","INCLINATION":"53.2154","COUNTRY_CODE":"US","OBJECT_TYPE":"PAYLOAD","RA_OF_ASC_NODE":"261.5617","EPHEMERIS_TYPE":"0","SEMIMAJOR_AXIS":"6917.880","RCS_SIZE":"LARGE","DECAY_DATE":null,"MEAN_ANOMALY":"267.2918","FILE":"3905576","GP_ID":"231637524","TIME_SYSTEM":"UTC","CENTER_NAME":"EARTH","TLE_LINE1":"1 53837U 22114V   23131.59723298  .00002088  00000-0  14921-3 0  9999","OBJECT_NAME":"STARLINK-4776","ARG_OF_PERICENTER":"92.8194"},{"ECCENTRICITY":"0.00015110","OBJECT_ID":"2022-114W","REV_AT_EPOCH":"3700","OBJECT_TYPE":"PAYLOAD","RA_OF_ASC_NODE":"252.1402","EPHEMERIS_TYPE":"0","SEMIMAJOR_AXIS":"6917.863","INCLINATION":"53.2162","COUNTRY_CODE":"US","FILE":"3905576","GP_ID":"231637774","RCS_SIZE":"LARGE","MEAN_ANOMALY":"227.4235","DECAY_DATE":null,"TIME_SYSTEM":"UTC","CENTER_NAME":"EARTH","TLE_LINE1":"1 53838U 22114W   23131.57245165  .00004414  00000-0  29522-3 0  9998","ARG_OF_PERICENTER":"132.6885","OBJECT_NAME":"STARLINK-4773","NORAD_CAT_ID":"53838","ELEMENT_SET_NO":"999","PERIOD":"95.437","LAUNCH_DATE":"2022-09-19","MEAN_ELEMENT_THEORY":"SGP4","CLASSIFICATION_TYPE":"U","MEAN_MOTION_DDOT":"0.0000000000000","SITE":"AFETR","PERIAPSIS":"538.683","MEAN_MOTION":"15.08845672","TLE_LINE2":"2 53838  53.2162 252.1402 0001511 132.6885 227.4235 15.08845672 37006","APOAPSIS":"540.773","REF_FRAME":"TEME","MEAN_MOTION_DOT":"0.00004414","BSTAR":"0.00029522000000","EPOCH":"2023-05-11T13:44:19.822560"},{"PERIOD":"95.437","LAUNCH_DATE":"2022-09-19","MEAN_ELEMENT_THEORY":"SGP4","CLASSIFICATION_TYPE":"U","MEAN_MOTION_DDOT":"0.0000000000000","SITE":"AFETR","PERIAPSIS":"539.050","NORAD_CAT_ID":"53839","ELEMENT_SET_NO":"999","MEAN_MOTION_DOT":"-0.00001333","BSTAR":"-0.00006571500000","EPOCH":"2023-05-11T13:54:56.642400","MEAN_MOTION":"15.08841059","TLE_LINE2":"2 53839  53.2170 252.1779 0001001  84.3917 275.7190 15.08841059 37007","REF_FRAME":"TEME","APOAPSIS":"540.435","OBJECT_TYPE":"PAYLOAD","SEMIMAJOR_AXIS":"6917.877","EPHEMERIS_TYPE":"0","RA_OF_ASC_NODE":"252.1779","INCLINATION":"53.2170","COUNTRY_CODE":"US","FILE":"3905576","GP_ID":"231638526","RCS_SIZE":"LARGE","MEAN_ANOMALY":"275.7190","DECAY_DATE":null,"ECCENTRICITY":"0.00010010","OBJECT_ID":"2022-114X","REV_AT_EPOCH":"3700","TLE_LINE1":"1 53839U 22114X   23131.57982225 -.00001333  00000-0 -65715-4 0  9998","ARG_OF_PERICENTER":"84.3917","OBJECT_NAME":"STARLINK-4784","TIME_SYSTEM":"UTC","CENTER_NAME":"EARTH"},{"EPOCH":"2023-05-11T15:05:10.365216","MEAN_MOTION_DOT":"0.00003040","BSTAR":"0.00020894000000","REF_FRAME":"TEME","APOAPSIS":"540.534","MEAN_MOTION":"15.08846214","TLE_LINE2":"2 53840  53.2162 251.7725 0001168  84.7073 275.4052 15.08846214 37010","CLASSIFICATION_TYPE":"U","MEAN_MOTION_DDOT":"0.0000000000000","SITE":"AFETR","PERIAPSIS":"538.918","LAUNCH_DATE":"2022-09-19","PERIOD":"95.437","MEAN_ELEMENT_THEORY":"SGP4","ELEMENT_SET_NO":"999","NORAD_CAT_ID":"53840","ARG_OF_PERICENTER":"84.7073","OBJECT_NAME":"STARLINK-4766","TLE_LINE1":"1 53840U 22114Y   23131.62859219  .00003040  00000-0  20894-3 0  9995","CENTER_NAME":"EARTH","TIME_SYSTEM":"UTC","FILE":"3905576","GP_ID":"231638277","RCS_SIZE":"LARGE","DECAY_DATE":null,"MEAN_ANOMALY":"275.4052","OBJECT_TYPE":"PAYLOAD","EPHEMERIS_TYPE":"0","RA_OF_ASC_NODE":"251.7725","SEMIMAJOR_AXIS":"6917.861","INCLINATION":"53.2162","COUNTRY_CODE":"US","ECCENTRICITY":"0.00011680","OBJECT_ID":"2022-114Y","REV_AT_EPOCH":"3701"},{"MEAN_MOTION_DOT":"0.00001704","BSTAR":"0.00012511000000","EPOCH":"2023-05-11T15:14:24.287712","TLE_LINE2":"2 53841  53.2176 251.8145 0000951 109.9493 250.1602 15.08843123 37015","MEAN_MOTION":"15.08843123","REF_FRAME":"TEME","APOAPSIS":"540.394","MEAN_ELEMENT_THEORY":"SGP4","LAUNCH_DATE":"2022-09-19","PERIOD":"95.437","MEAN_MOTION_DDOT":"0.0000000000000","SITE":"AFETR","PERIAPSIS":"539.078","CLASSIFICATION_TYPE":"U","NORAD_CAT_ID":"53841","ELEMENT_SET_NO":"999","TLE_LINE1":"1 53841U 22114Z   23131.63500333  .00001704  00000-0  12511-3 0  9999","OBJECT_NAME":"STARLINK-4750","ARG_OF_PERICENTER":"109.9493","TIME_SYSTEM":"UTC","CENTER_NAME":"EARTH","INCLINATION":"53.2176","COUNTRY_CODE":"US","OBJECT_TYPE":"PAYLOAD","EPHEMERIS_TYPE":"0","RA_OF_ASC_NODE":"251.8145","SEMIMAJOR_AXIS":"6917.871","RCS_SIZE":"LARGE","DECAY_DATE":null,"MEAN_ANOMALY":"250.1602","FILE":"3905576","GP_ID":"231637026","REV_AT_EPOCH":"3701","ECCENTRICITY":"0.00009510","OBJECT_ID":"2022-114Z"},{"MEAN_ELEMENT_THEORY":"SGP4","PERIOD":"95.437","LAUNCH_DATE":"2022-09-19","MEAN_MOTION_DDOT":"0.0000000000000","PERIAPSIS":"538.879","SITE":"AFETR","CLASSIFICATION_TYPE":"U","NORAD_CAT_ID":"53842","ELEMENT_SET_NO":"999","MEAN_MOTION_DOT":"0.00002141","BSTAR":"0.00015251000000","EPOCH":"2023-05-11T13:17:47.495616","TLE_LINE2":"2 53842  53.2154 252.0151 0001217 110.0824 250.0299 15.08848081 37007","MEAN_MOTION":"15.08848081","APOAPSIS":"540.563","REF_FRAME":"TEME","INCLINATION":"53.2154","COUNTRY_CODE":"US","OBJECT_TYPE":"PAYLOAD","RA_OF_ASC_NODE":"252.0151","EPHEMERIS_TYPE":"0","SEMIMAJOR_AXIS":"6917.856","RCS_SIZE":"LARGE","DECAY_DATE":null,"MEAN_ANOMALY":"250.0299","FILE":"3905576","GP_ID":"231637275","REV_AT_EPOCH":"3700","ECCENTRICITY":"0.00012170","OBJECT_ID":"2022-114AA","TLE_LINE1":"1 53842U 22114AA  23131.55402194  .00002141  00000-0  15251-3 0  9997","OBJECT_NAME":"STARLINK-4754","ARG_OF_PERICENTER":"110.0824","TIME_SYSTEM":"UTC","CENTER_NAME":"EARTH"}];
